1 43013U 17073A   26153.90404607  .00000072  00000+0  54923-4 0  9991
2 43013  98.7770  93.4938 0000695  35.9839 324.1383 14.19508922442447
